openapi: 3.0.3
info:
  title: SPICE SGP4 API
  description: |
    REST API for SGP4 satellite orbit propagation using NASA/JPL NAIF CSPICE compiled to WebAssembly.

    ## Features
    - Parse Two-Line Element (TLE) sets into orbital elements
    - Parse Orbital Mean-Elements Message (OMM) JSON into orbital elements
    - Convert between TLE and OMM formats
    - Propagate satellite state to any epoch
    - Convert between UTC and Ephemeris Time
    - Support for WGS-72 and WGS-84 geophysical models

    ## Data Formats
    - **TLE**: Legacy Two-Line Element format (69 characters per line)
    - **OMM**: CCSDS Orbital Mean-Elements Message (JSON format, CCSDS 502.0-B-2)

    ## Reference Frames
    All position and velocity outputs are in the TEME (True Equator Mean Equinox) reference frame,
    which is the standard frame for SGP4 propagation.
  version: 1.0.0
  license:
    name: GPL-3.0
    url: https://www.gnu.org/licenses/gpl-3.0.html
  contact:
    name: GitHub Repository
    url: https://github.com/haisamido/spice

servers:
  - url: http://localhost:50000
    description: Local development server

tags:
  - name: SPICE
    description: NASA/JPL NAIF SPICE endpoints
  - name: SPICE/SGP4
    description: Satellite propagation endpoints
  - name: SPICE/SGP4/TLE
    description: Two-Line Element (TLE) format endpoints
  - name: SPICE/SGP4/OMM
    description: Orbital Mean-Elements Message (OMM) endpoints
  - name: SPICE/SGP4/Time
    description: Time conversion endpoints
  - name: Models
    description: Geophysical model endpoints

paths:
  /api/spice/sgp4/health:
    get:
      summary: Health check
      description: Check if the API server is running and the SGP4 module is initialized.
      tags:
        - SPICE/SGP4
      responses:
        '200':
          description: Server is healthy
          content:
            application/json:
              schema:
                $ref: '#/components/schemas/HealthResponse'
              example:
                status: ok
                initialized: true

  /api/spice/sgp4/parse:
    post:
      summary: Parse TLE
      description: |
        Parse a Two-Line Element (TLE) set into orbital elements.
        Returns the epoch and 10-element array used by the SGP4 propagator.
      tags:
        - SPICE/SGP4/TLE
      requestBody:
        required: true
        content:
          application/json:
            schema:
              $ref: '#/components/schemas/TLEInput'
            example:
              line1: "1 25544U 98067A   24015.50000000  .00016717  00000-0  10270-3 0  9025"
              line2: "2 25544  51.6400 208.9163 0006703  30.0825 330.0579 15.49560830    19"
      responses:
        '200':
          description: Successfully parsed TLE
          content:
            application/json:
              schema:
                $ref: '#/components/schemas/ParseResponse'
        '400':
          description: Missing or invalid TLE lines
          content:
            application/json:
              schema:
                $ref: '#/components/schemas/Error'

  /api/spice/sgp4/propagate:
    post:
      summary: Propagate TLE or OMM
      description: |
        Unified propagation endpoint supporting both TLE and OMM input formats.

        **Single time mode**: Provide only `t0` to get one state vector at that time.

        **Range mode**: Provide `t0`, `tf`, and `step` to get an array of state vectors
        from t0 to tf at each step interval. Maximum of 1,209,602 points allowed per request (14 days at 1-second resolution).

        **Input format**: Use `input_type=tle` (default) for TLE input or `input_type=omm` for OMM input.
      tags:
        - SPICE/SGP4
      parameters:
        - name: t0
          in: query
          required: true
          description: Start time / single time (UTC string, e.g., "2024-01-15T12:00:00")
          schema:
            type: string
        - name: tf
          in: query
          required: false
          description: End time (UTC string). Required for range mode.
          schema:
            type: string
        - name: step
          in: query
          required: false
          description: Time step size. Required for range mode.
          schema:
            type: number
        - name: unit
          in: query
          description: Time step unit (only used in range mode)
          schema:
            type: string
            enum: [sec, min]
            default: sec
        - name: wgs
          in: query
          description: Geophysical model to use
          schema:
            type: string
            enum: [wgs72, wgs84]
            default: wgs72
        - name: input_type
          in: query
          description: Input format type
          schema:
            type: string
            enum: [tle, omm]
            default: tle
        - name: output_type
          in: query
          description: Output format (json or txt). TXT format returns CSV with datetime,et,x,y,z,vx,vy,vz columns.
          schema:
            type: string
            enum: [json, txt]
            default: txt
        - name: batch_size
          in: query
          description: Number of rows to buffer before flushing to client (txt output only). Larger values reduce overhead but increase memory usage. Default is floor(MAX_POINTS/1000) = 1209 (~115KB per batch).
          schema:
            type: integer
            minimum: 1
            maximum: 1209602
        - name: body
          in: query
          description: URL-encoded JSON body (alternative to POST body). When provided, this overrides the request body.
          schema:
            type: string
      requestBody:
        required: false
        content:
          application/json:
            schema:
              oneOf:
                - $ref: '#/components/schemas/TLEInput'
                - $ref: '#/components/schemas/OMMInput'
            examples:
              tle:
                summary: TLE input
                value:
                  line1: "1 25544U 98067A   24015.50000000  .00016717  00000-0  10270-3 0  9025"
                  line2: "2 25544  51.6400 208.9163 0006703  30.0825 330.0579 15.49560830    19"
              omm:
                summary: OMM input
                value:
                  OBJECT_NAME: "ISS (ZARYA)"
                  OBJECT_ID: "1998-067A"
                  EPOCH: "2024-01-15T12:00:00.000"
                  MEAN_MOTION: 15.49560830
                  ECCENTRICITY: 0.0006703
                  INCLINATION: 51.6400
                  RA_OF_ASC_NODE: 208.9163
                  ARG_OF_PERICENTER: 30.0825
                  MEAN_ANOMALY: 330.0579
                  NORAD_CAT_ID: 25544
                  BSTAR: 0.00010270
                  MEAN_MOTION_DOT: 0.00016717
      responses:
        '200':
          description: Successfully propagated
          content:
            application/json:
              schema:
                $ref: '#/components/schemas/PropagateRangeResponse'
            text/csv:
              schema:
                type: string
              example: |
                datetime,et,x,y,z,vx,vy,vz
                2024-01-15T12:00:00.000,758592069.18,-5945.93,-3284.80,0.29,2.31,-4.16,6.01
        '400':
          description: Missing or invalid parameters
          content:
            application/json:
              schema:
                $ref: '#/components/schemas/Error'
    get:
      summary: Propagate TLE or OMM (browser-friendly)
      description: |
        Same as POST but accepts all input via query parameters. Useful for direct browser access.

        **IMPORTANT**: The `body` parameter must be fully URL-encoded. All special characters including `{`, `}`, `:`, `,`, `"`, and spaces must be percent-encoded.

